CZ-2C R/B               
1 54039U 22132E   25363.46302906  .00040647  00000+0  58105-3 0  9992
2 54039  97.2948 359.9941 0020151 359.1113   1.0102 15.55890036179434
GSLV R/B                
1 54149U 22138AN  25363.50946049  .00003865  00000+0  33848-3 0  9995
2 54149  87.3819 189.8568 0023648  50.7555 309.5770 14.96221537173435
XRISM                   
1 57800U 23137A   25363.28925317  .00009274  00000+0  54276-3 0  9990
2 57800  31.0035  18.6816 0007561  52.7980 307.3348 15.10526135127135
ACS3                    
1 59588U 24077B   25363.43148344  .00038159  00000+0  32186-1 0  9991
2 59588  97.2558 315.3079 0072391 296.7668  62.6100 13.86330914 84451
SZ-21 MODULE            
1 66515U 25246C   25362.76988595  .00034087  00000+0  36158-3 0  9994
2 66515  41.4763 278.1983 0003746 347.8379  12.2370 15.63373311  6957
