CCSDS_OMM_VERS = 2.0
CREATION_DATE  = 
ORIGINATOR     = 

OBJECT_NAME    = CZ-2C R/B
OBJECT_ID      = 2022-132E
CENTER_NAME    = EARTH
REF_FRAME      = TEME
TIME_SYSTEM    = UTC
MEAN_ELEMENT_THEORY = SGP/SGP4

EPOCH          = 2025-12-29T11:06:45.710784
MEAN_MOTION    = 15.55890036
ECCENTRICITY   = .0020151
INCLINATION    = 97.2948
RA_OF_ASC_NODE = 359.9941
ARG_OF_PERICENTER = 359.1113
MEAN_ANOMALY   = 1.0102

EPHEMERIS_TYPE = 0
CLASSIFICATION_TYPE = U
NORAD_CAT_ID   = 54039
ELEMENT_SET_NO = 999
REV_AT_EPOCH   = 17943
BSTAR          = .58105E-3
MEAN_MOTION_DOT = .40647E-3
MEAN_MOTION_DDOT = 0

CCSDS_OMM_VERS = 2.0
CREATION_DATE  = 
ORIGINATOR     = 

OBJECT_NAME    = GSLV R/B
OBJECT_ID      = 2022-138AN
CENTER_NAME    = EARTH
REF_FRAME      = TEME
TIME_SYSTEM    = UTC
MEAN_ELEMENT_THEORY = SGP/SGP4

EPOCH          = 2025-12-29T12:13:37.386336
MEAN_MOTION    = 14.96221537
ECCENTRICITY   = .0023648
INCLINATION    = 87.3819
RA_OF_ASC_NODE = 189.8568
ARG_OF_PERICENTER = 50.7555
MEAN_ANOMALY   = 309.5770

EPHEMERIS_TYPE = 0
CLASSIFICATION_TYPE = U
NORAD_CAT_ID   = 54149
ELEMENT_SET_NO = 999
REV_AT_EPOCH   = 17343
BSTAR          = .33848E-3
MEAN_MOTION_DOT = .3865E-4
MEAN_MOTION_DDOT = 0

CCSDS_OMM_VERS = 2.0
CREATION_DATE  = 
ORIGINATOR     = 

OBJECT_NAME    = XRISM
OBJECT_ID      = 2023-137A
CENTER_NAME    = EARTH
REF_FRAME      = TEME
TIME_SYSTEM    = UTC
MEAN_ELEMENT_THEORY = SGP/SGP4

EPOCH          = 2025-12-29T06:56:31.473888
MEAN_MOTION    = 15.10526135
ECCENTRICITY   = .0007561
INCLINATION    = 31.0035
RA_OF_ASC_NODE = 18.6816
ARG_OF_PERICENTER = 52.7980
MEAN_ANOMALY   = 307.3348

EPHEMERIS_TYPE = 0
CLASSIFICATION_TYPE = U
NORAD_CAT_ID   = 57800
ELEMENT_SET_NO = 999
REV_AT_EPOCH   = 12713
BSTAR          = .54276E-3
MEAN_MOTION_DOT = .9274E-4
MEAN_MOTION_DDOT = 0

CCSDS_OMM_VERS = 2.0
CREATION_DATE  = 
ORIGINATOR     = 

OBJECT_NAME    = ACS3
OBJECT_ID      = 2024-077B
CENTER_NAME    = EARTH
REF_FRAME      = TEME
TIME_SYSTEM    = UTC
MEAN_ELEMENT_THEORY = SGP/SGP4

EPOCH          = 2025-12-29T10:21:20.169216
MEAN_MOTION    = 13.86330914
ECCENTRICITY   = .0072391
INCLINATION    = 97.2558
RA_OF_ASC_NODE = 315.3079
ARG_OF_PERICENTER = 296.7668
MEAN_ANOMALY   = 62.6100

EPHEMERIS_TYPE = 0
CLASSIFICATION_TYPE = U
NORAD_CAT_ID   = 59588
ELEMENT_SET_NO = 999
REV_AT_EPOCH   = 8445
BSTAR          = .32186E-1
MEAN_MOTION_DOT = .38159E-3
MEAN_MOTION_DDOT = 0

CCSDS_OMM_VERS = 2.0
CREATION_DATE  = 
ORIGINATOR     = 

OBJECT_NAME    = SZ-21 MODULE
OBJECT_ID      = 2025-246C
CENTER_NAME    = EARTH
REF_FRAME      = TEME
TIME_SYSTEM    = UTC
MEAN_ELEMENT_THEORY = SGP/SGP4

EPOCH          = 2025-12-28T18:28:38.146080
MEAN_MOTION    = 15.63373311
ECCENTRICITY   = .00037462
INCLINATION    = 41.4763
RA_OF_ASC_NODE = 278.1983
ARG_OF_PERICENTER = 347.8379
MEAN_ANOMALY   = 12.2370

EPHEMERIS_TYPE = 0
CLASSIFICATION_TYPE = U
NORAD_CAT_ID   = 66515
ELEMENT_SET_NO = 999
REV_AT_EPOCH   = 695
BSTAR          = .36158034E-3
MEAN_MOTION_DOT = .34087E-3
MEAN_MOTION_DDOT = 0

